{
  "type": "FeatureCollection",
  "features": [
    {
      "type": "Feature",
      "properties": {
        "norad_id": 35020,
        "name": "COSMOS 2251 DEB",
        "group": "cosmos-2251-debris",
        "lat": 30.53255755673004,
        "lon": -133.94233364730138,
        "alt_km": 648.966524524667,
        "timestamp": "2025-12-03T15:48:03.461972+00:00",
        "meta_object_name": "COSMOS 2251 DEB",
        "meta_object_id": "1993-036AGH",
        "meta_epoch": "2025-12-03T02:31:35.390208",
        "meta_mean_motion": 14.6277767,
        "meta_eccentricity": 0.00911506,
        "meta_inclination": 74.049,
        "meta_ra_of_asc_node": 217.4049,
        "meta_arg_of_pericenter": 333.8786,
        "meta_mean_anomaly": 25.7795,
        "meta_ephemeris_type": 0,
        "meta_classification_type": "U",
        "meta_norad_cat_id": 35020,
        "meta_element_set_no": 999,
        "meta_rev_at_epoch": 88097,
        "meta_bstar": 0.00024246139,
        "meta_mean_motion_dot": 1.279e-05,
        "meta_mean_motion_ddot": 0,
        "tle_line1": "1 35020U 93036AGH 25337.10527072  .00001279  00000+0  24246-3 0  9994",
        "tle_line2": "2 35020  74.0490 217.4049 0091150 333.8786  25.7795 14.62777670880971"
      },
      "geometry": {
        "type": "Point",
        "coordinates": [
          -133.94233364730138,
          30.53255755673004
        ]
      }
    },
    {
      "type": "Feature",
      "properties": {
        "norad_id": 35022,
        "name": "COSMOS 2251 DEB",
        "group": "cosmos-2251-debris",
        "lat": 31.12552077996143,
        "lon": 149.33594832605675,
        "alt_km": 660.9546607864313,
        "timestamp": "2025-12-03T15:48:03.461981+00:00",
        "meta_object_name": "COSMOS 2251 DEB",
        "meta_object_id": "1993-036AGK",
        "meta_epoch": "2025-12-02T17:45:34.658208",
        "meta_mean_motion": 14.60763876,
        "meta_eccentricity": 0.00472905,
        "meta_inclination": 74.0262,
        "meta_ra_of_asc_node": 341.0512,
        "meta_arg_of_pericenter": 183.6288,
        "meta_mean_anomaly": 176.4543,
        "meta_ephemeris_type": 0,
        "meta_classification_type": "U",
        "meta_norad_cat_id": 35022,
        "meta_element_set_no": 999,
        "meta_rev_at_epoch": 58997,
        "meta_bstar": 0.00056913021,
        "meta_mean_motion_dot": 2.791e-05,
        "meta_mean_motion_ddot": 0,
        "tle_line1": "1 35022U 93036AGK 25336.73998447  .00002791  00000+0  56913-3 0  9998",
        "tle_line2": "2 35022  74.0262 341.0512 0047290 183.6288 176.4543 14.60763876589975"
      },
      "geometry": {
        "type": "Point",
        "coordinates": [
          149.33594832605675,
          31.12552077996143
        ]
      }
    },
    {
      "type": "Feature",
      "properties": {
        "norad_id": 35023,
        "name": "COSMOS 2251 DEB",
        "group": "cosmos-2251-debris",
        "lat": -64.92274514847449,
        "lon": -166.81320800878456,
        "alt_km": 568.0053589324752,
        "timestamp": "2025-12-03T15:48:03.461990+00:00",
        "meta_object_name": "COSMOS 2251 DEB",
        "meta_object_id": "1993-036AGL",
        "meta_epoch": "2025-12-03T03:56:01.944960",
        "meta_mean_motion": 14.94570592,
        "meta_eccentricity": 0.00345556,
        "meta_inclination": 74.0389,
        "meta_ra_of_asc_node": 231.8891,
        "meta_arg_of_pericenter": 311.6076,
        "meta_mean_anomaly": 198.8445,
        "meta_ephemeris_type": 0,
        "meta_classification_type": "U",
        "meta_norad_cat_id": 35023,
        "meta_element_set_no": 999,
        "meta_rev_at_epoch": 88136,
        "meta_bstar": 0.0023721415,
        "meta_mean_motion_dot": 0.00026024,
        "meta_mean_motion_ddot": 0,
        "tle_line1": "1 35023U 93036AGL 25337.16391140  .00026024  00000+0  23721-2 0  9999",
        "tle_line2": "2 35023  74.0389 231.8891 0034555 311.6076 198.8445 14.94570592881365"
      },
      "geometry": {
        "type": "Point",
        "coordinates": [
          -166.81320800878456,
          -64.92274514847449
        ]
      }
    },
    {
      "type": "Feature",
      "properties": {
        "norad_id": 35025,
        "name": "COSMOS 2251 DEB",
        "group": "cosmos-2251-debris",
        "lat": 9.190476616786963,
        "lon": 83.38908341809325,
        "alt_km": 596.2868332814933,
        "timestamp": "2025-12-03T15:48:03.461999+00:00",
        "meta_object_name": "COSMOS 2251 DEB",
        "meta_object_id": "1993-036AGN",
        "meta_epoch": "2025-12-03T01:05:05.186688",
        "meta_mean_motion": 14.72628151,
        "meta_eccentricity": 0.00846667,
        "meta_inclination": 73.9382,
        "meta_ra_of_asc_node": 81.9179,
        "meta_arg_of_pericenter": 356.9044,
        "meta_mean_anomaly": 3.1592,
        "meta_ephemeris_type": 0,
        "meta_classification_type": "U",
        "meta_norad_cat_id": 35025,
        "meta_element_set_no": 999,
        "meta_rev_at_epoch": 88500,
        "meta_bstar": 0.00048771001,
        "meta_mean_motion_dot": 3.252e-05,
        "meta_mean_motion_ddot": 0,
        "tle_line1": "1 35025U 93036AGN 25337.04519892  .00003252  00000+0  48771-3 0  9995",
        "tle_line2": "2 35025  73.9382  81.9179 0084666 356.9044   3.1592 14.72628151885003"
      },
      "geometry": {
        "type": "Point",
        "coordinates": [
          83.38908341809325,
          9.190476616786963
        ]
      }
    },
    {
      "type": "Feature",
      "properties": {
        "norad_id": 35026,
        "name": "COSMOS 2251 DEB",
        "group": "cosmos-2251-debris",
        "lat": 35.43513642349067,
        "lon": 144.20206523085778,
        "alt_km": 673.9571734089704,
        "timestamp": "2025-12-03T15:48:03.462008+00:00",
        "meta_object_name": "COSMOS 2251 DEB",
        "meta_object_id": "1993-036AGP",
        "meta_epoch": "2025-12-02T18:29:37.928832",
        "meta_mean_motion": 14.53613384,
        "meta_eccentricity": 0.00822592,
        "meta_inclination": 74.0462,
        "meta_ra_of_asc_node": 337.6224,
        "meta_arg_of_pericenter": 93.9267,
        "meta_mean_anomaly": 84.2291,
        "meta_ephemeris_type": 0,
        "meta_classification_type": "U",
        "meta_norad_cat_id": 35026,
        "meta_element_set_no": 999,
        "meta_rev_at_epoch": 87998,
        "meta_bstar": 8.1430616e-05,
        "meta_mean_motion_dot": 3.26e-06,
        "meta_mean_motion_ddot": 0,
        "tle_line1": "1 35026U 93036AGP 25336.77057788  .00000326  00000+0  81431-4 0  9996",
        "tle_line2": "2 35026  74.0462 337.6224 0082259  93.9267  84.2291 14.53613384879985"
      },
      "geometry": {
        "type": "Point",
        "coordinates": [
          144.20206523085778,
          35.43513642349067
        ]
      }
    },
    {
      "type": "Feature",
      "properties": {
        "norad_id": 35028,
        "name": "COSMOS 2251 DEB",
        "group": "cosmos-2251-debris",
        "lat": 19.613733394434647,
        "lon": 102.35914812291378,
        "alt_km": 708.716919290383,
        "timestamp": "2025-12-03T15:48:03.462017+00:00",
        "meta_object_name": "COSMOS 2251 DEB",
        "meta_object_id": "1993-036AGR",
        "meta_epoch": "2025-12-03T07:31:08.251680",
        "meta_mean_motion": 14.56553316,
        "meta_eccentricity": 0.00821927,
        "meta_inclination": 74.0379,
        "meta_ra_of_asc_node": 288.8678,
        "meta_arg_of_pericenter": 65.1818,
        "meta_mean_anomaly": 84.6032,
        "meta_ephemeris_type": 0,
        "meta_classification_type": "U",
        "meta_norad_cat_id": 35028,
        "meta_element_set_no": 999,
        "meta_rev_at_epoch": 88148,
        "meta_bstar": 0.00016513418,
        "meta_mean_motion_dot": 7.39e-06,
        "meta_mean_motion_ddot": 0,
        "tle_line1": "1 35028U 93036AGR 25337.31328995  .00000739  00000+0  16513-3 0  9996",
        "tle_line2": "2 35028  74.0379 288.8678 0082192  65.1818  84.6032 14.56553316881489"
      },
      "geometry": {
        "type": "Point",
        "coordinates": [
          102.35914812291378,
          19.613733394434647
        ]
      }
    },
    {
      "type": "Feature",
      "properties": {
        "norad_id": 35031,
        "name": "COSMOS 2251 DEB",
        "group": "cosmos-2251-debris",
        "lat": -50.5914741581802,
        "lon": -104.39138533912133,
        "alt_km": 765.139025255743,
        "timestamp": "2025-12-03T15:48:03.462025+00:00",
        "meta_object_name": "COSMOS 2251 DEB",
        "meta_object_id": "1993-036AGU",
        "meta_epoch": "2025-12-03T02:41:37.542912",
        "meta_mean_motion": 14.38274167,
        "meta_eccentricity": 0.00184369,
        "meta_inclination": 74.0383,
        "meta_ra_of_asc_node": 276.9995,
        "meta_arg_of_pericenter": 12.5533,
        "meta_mean_anomaly": 347.6077,
        "meta_ephemeris_type": 0,
        "meta_classification_type": "U",
        "meta_norad_cat_id": 35031,
        "meta_element_set_no": 999,
        "meta_rev_at_epoch": 65145,
        "meta_bstar": 0.00026325314,
        "meta_mean_motion_dot": 7.76e-06,
        "meta_mean_motion_ddot": 0,
        "tle_line1": "1 35031U 93036AGU 25337.11224008  .00000776  00000+0  26325-3 0  9991",
        "tle_line2": "2 35031  74.0383 276.9995 0018436  12.5533 347.6077 14.38274167651455"
      },
      "geometry": {
        "type": "Point",
        "coordinates": [
          -104.39138533912133,
          -50.5914741581802
        ]
      }
    }
  ]
}